HORYU-4                 
1 41340U 16012D   20167.57112223  .00000385  00000-0  22368-4 0  9992
2 41340  31.0062 343.7746 0013719 130.6691 229.5138 15.01504309237591
E-ST@R-II               
1 41459U 16025D   20167.53571738  .00000348  00000-0  22012-4 0  9998
2 41459  98.1029 277.4263 0164288 217.7519 141.2086 15.06401943227158
AAUSAT 4                
1 41460U 16025E   20167.54330440  .00001188  00000-0  62035-4 0  9996
2 41460  98.0997 279.7534 0153129 206.4854 152.8483 15.08706932227357
BEESAT-4                
1 41619U 16040W   20167.25877742  .00001069  00000-0  46946-4 0  9999
2 41619  97.3193 226.8451 0011059 178.3012 181.8265 15.24011276209068
CANX-7                  
1 41788U 16059F   20167.40519487  .00002565  00000-0  35872-3 0  9999
2 41788  98.2556 255.1886 0021664 302.6690  57.2403 14.78370306199510
RAVAN                   
1 41849U 16067B   20167.53941564 -.00000033  00000-0  24168-5 0  9992
2 41849  97.9350 277.3594 0006462 247.4356 112.6182 14.98570586196333
CELTEE 1                
1 41850U 16067C   20167.26553058 -.00000033  00000-0  24326-5 0  9997
2 41850  97.9280 274.8144 0007118 253.7674 106.2764 14.97189081196174
OPTICUBE 04             
1 41851U 16067D   20167.52972332  .00000011  00000-0  62166-5 0  9996
2 41851  97.9268 274.7026 0007234 254.8168 105.2254 14.96929965196195
AEROCUBE 8D             
1 41852U 16067E   20167.54578657 -.00000347  00000-0 -24926-4 0  9996
2 41852  97.9268 274.5548 0008371 255.9046 104.1245 14.96910746196176
AEROCUBE 8C             
1 41853U 16067F   20167.24310638  .00000689  00000-0  65323-4 0  9990
2 41853  97.9265 274.1523 0008426 256.0760 103.9524 14.96875091196124
PROMETHEUS 2-1          
1 41854U 16067G   20167.54730514 -.00000207  00000-0 -12579-4 0  9996
2 41854  97.9274 274.7887 0009069 256.1841 103.8371 14.97195396196188
PROMETHEUS 2-3          
1 41855U 16067H   20167.54775177 -.00000203  00000-0 -12210-4 0  9999
2 41855  97.9276 274.8216 0009246 256.5759 103.4431 14.97204838196182
INS-1B                  
1 41954U 17008G   20167.44347235  .00000966  00000-0  41816-4 0  9992
2 41954  97.3541 231.8801 0007658 316.3128  43.7503 15.24782010185069
BGUSAT                  
1 41999U 17008BD  20167.44189691  .00001652  00000-0  64108-4 0  9993
2 41999  97.3656 236.0115 0006685 328.4467  31.6370 15.27505190184645
DIDO-2                  
1 42000U 17008BE  20167.47157168  .00000601  00000-0  27332-4 0  9995
2 42000  97.3550 232.4148 0007592 338.5518  21.5401 15.24475779184464
PEASSS                  
1 42015U 17008BV  20167.45043811  .00000863  00000-0  36759-4 0  9991
2 42015  97.3574 233.9901 0005623 346.9055  13.2037 15.25616513185043
AL-FARABI 1             
1 42016U 17008BW  20167.27604681  .00001106  00000-0  45209-4 0  9991
2 42016  97.3602 234.8593 0005457 347.1167  12.9931 15.26457283185198
NAYIF-1 (EO-88)         
1 42017U 17008BX  20167.45148315  .00001148  00000-0  46759-4 0  9996
2 42017  97.3597 235.0429 0005476 345.2472  14.8606 15.26498595185249
UCLSAT                  
1 42765U 17036A   20167.38382962  .00000892  00000-0  40163-4 0  9995
2 42765  97.3006 221.6813 0012349  40.9666 319.2497 15.23528042165676
LITUANICASAT-2          
1 42768U 17036D   20167.09907410  .00001565  00000-0  67168-4 0  9999
2 42768  97.3063 221.3726 0015395  30.8787 329.3353 15.24073657165488
AALTO-1                 
1 42775U 17036L   20167.41434068  .00000585  00000-0  28657-4 0  9998
2 42775  97.2982 219.5344 0014689  33.1928 327.0226 15.21842953165369
URSA MAIOR              
1 42776U 17036M   20167.27240502  .00000643  00000-0  31044-4 0  9990
2 42776  97.2994 219.6803 0014503  33.4759 326.7391 15.22025670165352
COMPASS 2               
1 42777U 17036N   20167.18684143  .00001249  00000-0  54451-4 0  9994
2 42777  97.3052 221.8785 0013057  32.8330 327.3716 15.23926331165458
DIAMOND RED             
1 42783U 17036U   20167.37747038  .00000763  00000-0  35483-4 0  9999
2 42783  97.3007 220.9454 0013088  42.4037 317.8209 15.22837813165437
PEGASUS                 
1 42784U 17036V   20167.40871122  .00000863  00000-0  39323-4 0  9994
2 42784  97.3012 221.3958 0012914  41.3163 318.9048 15.23217053165468
DIAMOND GREEN           
1 42785U 17036W   20167.37626819  .00000775  00000-0  35970-4 0  9998
2 42785  97.3009 220.9795 0013012  43.1316 317.0937 15.22838487165500
DIAMOND BLUE            
1 42786U 17036X   20167.37547060  .00000767  00000-0  35633-4 0  9996
2 42786  97.3008 220.9742 0012857  43.3665 316.8581 15.22838191165501
NUDTSAT                 
1 42787U 17036Y   20167.59870351  .00001617  00000-0  68429-4 0  9997
2 42787  97.3054 222.9707 0012990  32.6076 327.5959 15.24529432165416
SUCHAI                  
1 42788U 17036Z   20167.10534733  .00001047  00000-0  46328-4 0  9997
2 42788  97.3020 221.6867 0012444  41.0952 319.1220 15.23766612165526
SKCUBE                  
1 42789U 17036AA  20167.41388619  .00000967  00000-0  43224-4 0  9994
2 42789  97.3014 221.8406 0012299  40.3832 319.8316 15.23609149165487
VZLUSAT-1               
1 42790U 17036AB  20167.39076597  .00001283  00000-0  54936-4 0  9996
2 42790  97.3040 222.7643 0011755  38.8182 321.3898 15.24513171165536
ROBUSTA-1B              
1 42792U 17036AD  20167.43360990  .00001018  00000-0  45085-4 0  9997
2 42792  97.3017 222.1104 0011907  40.9474 319.2655 15.23797350165512
CICERO 6                
1 42793U 17036AE  20167.41974437  .00000673  00000-0  31365-4 0  9995
2 42793  97.2992 221.5070 0011291  43.7669 316.4461 15.23144974165558
D-SAT                   
1 42794U 17036AF  20167.56352215  .00000251  00000-0  27052-4 0  9996
2 42794  97.4933 200.3132 0126480  12.0901 348.3305 14.91280792162411
CORVUS BC2              
1 42846U 17042X   20167.56307646  .00000264  00000-0  31211-4 0  9995
2 42846  97.5236  51.2071 0008117 287.9834  72.0501 14.92107596159129
CORVUS BC1              
1 42847U 17042Y   20167.42478820  .00000297  00000-0  34378-4 0  9997
2 42847  97.5239  51.2442 0007741 287.7857  72.2518 14.92208566159107
MIRATA                  
1 43015U 17073C   20167.51131325  .00001157  00000-0  93678-4 0  9999
2 43015  97.7195  79.8000 0254687  55.1048 307.3817 14.79650822138939
MAKERSAT 0              
1 43016U 17073D   20167.26908131  .00000806  00000-0  66904-4 0  9991
2 43016  97.7230  79.7482 0257430  56.9441 305.6212 14.79216372138879
DELLINGR (RBLE)         
1 43021U 98067NJ  20167.52415677  .00009389  00000-0  78763-4 0  9997
2 43021  51.6353 289.6870 0001477  46.7828 313.3293 15.70743031146566
AEROCUBE 7B (OCSD B)    
1 43042U 17071F   20167.23015162  .00002739  00000-0  69075-4 0  9997
2 43042  51.6384  77.4707 0004987  44.5710 315.5676 15.43603639142036
AEROCUBE 7C (OCSD C)    
1 43043U 17071G   20167.23349150  .00002655  00000-0  67301-4 0  9992
2 43043  51.6385  77.5079 0005235  48.1280 312.0152 15.43577645142005
CHEFSAT                 
1 43044U 17071H   20167.42264002  .00005591  00000-0  11190-3 0  9992
2 43044  51.6388  61.7938 0004934  56.3379 303.8080 15.48382055142230
ASGARDIA 1              
1 43049U 17071N   20167.35642386  .00002534  00000-0  64550-4 0  9997
2 43049  51.6395  76.1521 0003034  65.2078 294.9223 15.43620510142039
ISARA                   
1 43050U 17071P   20167.53243341  .00004765  00000-0  99957-4 0  9994
2 43050  51.6371  63.9063 0002981  69.6659 290.4649 15.47374390142212
PROPCUBE 2 (FAUNA)      
1 43052U 17071R   20167.53740569  .00002700  00000-0  67194-4 0  9995
2 43052  51.6389  73.6285 0002983  63.8396 296.2897 15.44074383142072
CORVUS BC3              
1 43118U 18004H   20167.45633025  .00000589  00000-0  27753-4 0  9994
2 43118  97.4437 237.7455 0011823  64.2248 296.0207 15.23367655134699
MICROMAS-2A             
1 43131U 18004W   20167.48298962  .00001427  00000-0  59536-4 0  9995
2 43131  97.4486 239.4957 0010648  63.8281 296.4051 15.25290053134791
SPACEBEE-4              
1 43139U 18004AE  20167.32190738  .00002044  00000-0  80876-4 0  9995
2 43139  97.4520 240.5112 0010028  65.7175 294.5110 15.26577413134838
SPACEBEE-3              
1 43140U 18004AF  20167.46410983  .00002581  00000-0  98694-4 0  9992
2 43140  97.4535 241.3354 0009650  64.6056 295.6181 15.27476703134895
SPACEBEE-2              
1 43141U 18004AG  20167.50957568  .00002668  00000-0  10100-3 0  9994
2 43141  97.4550 241.6384 0009594  63.7879 296.4346 15.27781242134911
SPACEBEE-1              
1 43142U 18004AH  20167.47779789  .00002854  00000-0  10669-3 0  9995
2 43142  97.4553 241.8657 0009560  63.7390 296.4831 15.28138152134917
CICERO 7                
1 43143U 18004AJ  20167.48415639  .00001173  00000-0  49413-4 0  9991
2 43143  97.4465 239.6797 0009015  72.4624 287.7598 15.25326691134818
GOMX-4B                 
1 43196U 18015E   20167.57875152  .00000269  00000-0  13919-4 0  9998
2 43196  97.4379 296.1279 0020451 109.8468 250.4976 15.24261048131616
GOMX-4A                 
1 43197U 18015F   20167.53661060  .00000691  00000-0  30921-4 0  9997
2 43197  97.4374 296.1748 0020544 110.0297 316.8022 15.24508113131627
1KUNS-PF                
1 43466U 98067NP  20162.72983235  .07919004  12439-4  62785-3 0  9997
2 43466  51.6123 283.7308 0007318 301.8476 166.2040 16.39179723119460
UBAKUSAT                
1 43467U 98067NQ  20167.57565684  .00022878  00000-0  15125-3 0  9990
2 43467  51.6345 291.3963 0001181 358.6386   1.4610 15.75468583119817
CUBERRT                 
1 43546U 98067NU  20167.53930744  .00016688  00000-0  12082-3 0  9998
2 43546  51.6338 291.1911 0002839  74.1288 286.0023 15.73598856109947
TEMPEST-D               
1 43547U 98067NV  20167.49241263  .00003356  00000-0  42770-4 0  9991
2 43547  51.6371 321.7768 0005002  53.4142 306.7312 15.62553860109214
RAINCUBE                
1 43548U 98067NW  20167.55062283  .00021000  00000-0  14658-3 0  9991
2 43548  51.6324 299.4827 0002953  73.5457 286.5866 15.74268113109962
